{
  "type": "FeatureCollection",
  "features": [
    {
      "type": "Feature",
      "properties": {
        "norad_id": 34389,
        "name": "COSMOS 2251 DEB",
        "group": "cosmos-2251-debris",
        "lat": -13.971772062814194,
        "lon": 74.14252006077317,
        "alt_km": 777.8200706925418,
        "timestamp": "2025-12-12T14:39:18.326854+00:00",
        "meta_object_name": "COSMOS 2251 DEB",
        "meta_object_id": "1993-036QE",
        "meta_epoch": "2025-12-12T04:27:58.399776",
        "meta_mean_motion": 14.4153149,
        "meta_eccentricity": 0.00289048,
        "meta_inclination": 74.0194,
        "meta_ra_of_asc_node": 250.8408,
        "meta_arg_of_pericenter": 3.0064,
        "meta_mean_anomaly": 149.248,
        "meta_ephemeris_type": 0,
        "meta_classification_type": "U",
        "meta_norad_cat_id": 34389,
        "meta_element_set_no": 999,
        "meta_rev_at_epoch": 88004,
        "meta_bstar": 0.00063766049,
        "meta_mean_motion_dot": 2.056e-05,
        "meta_mean_motion_ddot": 0,
        "tle_line1": "1 34389U 93036QE  25346.18609259  .00002056  00000+0  63766-3 0  9991",
        "tle_line2": "2 34389  74.0194 250.8408 0028904   3.0064 149.2480 14.41531490880047"
      },
      "geometry": {
        "type": "Point",
        "coordinates": [
          74.14252006077317,
          -13.971772062814194
        ]
      }
    },
    {
      "type": "Feature",
      "properties": {
        "norad_id": 34396,
        "name": "COSMOS 2251 DEB",
        "group": "cosmos-2251-debris",
        "lat": 69.20737479708264,
        "lon": -104.67156050287053,
        "alt_km": 637.7024467643878,
        "timestamp": "2025-12-12T14:39:18.326864+00:00",
        "meta_object_name": "COSMOS 2251 DEB",
        "meta_object_id": "1993-036QM",
        "meta_epoch": "2025-12-11T10:45:23.423328",
        "meta_mean_motion": 14.74370157,
        "meta_eccentricity": 0.00062889,
        "meta_inclination": 74.029,
        "meta_ra_of_asc_node": 126.555,
        "meta_arg_of_pericenter": 166.7674,
        "meta_mean_anomaly": 249.2476,
        "meta_ephemeris_type": 0,
        "meta_classification_type": "U",
        "meta_norad_cat_id": 34396,
        "meta_element_set_no": 999,
        "meta_rev_at_epoch": 88327,
        "meta_bstar": 0.0044970445,
        "meta_mean_motion_dot": 0.00029929,
        "meta_mean_motion_ddot": 0,
        "tle_line1": "1 34396U 93036QM  25345.44818777  .00029929  00000+0  44970-2 0  9997",
        "tle_line2": "2 34396  74.0290 126.5550 0006288 166.7674 249.2476 14.74370157883275"
      },
      "geometry": {
        "type": "Point",
        "coordinates": [
          -104.67156050287053,
          69.20737479708264
        ]
      }
    },
    {
      "type": "Feature",
      "properties": {
        "norad_id": 34400,
        "name": "COSMOS 2251 DEB",
        "group": "cosmos-2251-debris",
        "lat": 47.71053608336951,
        "lon": 42.078804758373856,
        "alt_km": 405.3962697533889,
        "timestamp": "2025-12-12T14:39:18.326873+00:00",
        "meta_object_name": "COSMOS 2251 DEB",
        "meta_object_id": "1993-036QR",
        "meta_epoch": "2025-12-12T02:04:19.041600",
        "meta_mean_motion": 15.53062359,
        "meta_eccentricity": 0.00052902,
        "meta_inclination": 73.9661,
        "meta_ra_of_asc_node": 24.8071,
        "meta_arg_of_pericenter": 267.662,
        "meta_mean_anomaly": 92.3989,
        "meta_ephemeris_type": 0,
        "meta_classification_type": "U",
        "meta_norad_cat_id": 34400,
        "meta_element_set_no": 999,
        "meta_rev_at_epoch": 89964,
        "meta_bstar": 0.0039903096,
        "meta_mean_motion_dot": 0.00257951,
        "meta_mean_motion_ddot": 0,
        "tle_line1": "1 34400U 93036QR  25346.08633150  .00257951  00000+0  39903-2 0  9992",
        "tle_line2": "2 34400  73.9661  24.8071 0005290 267.6620  92.3989 15.53062359899647"
      },
      "geometry": {
        "type": "Point",
        "coordinates": [
          42.078804758373856,
          47.71053608336951
        ]
      }
    },
    {
      "type": "Feature",
      "properties": {
        "norad_id": 34409,
        "name": "COSMOS 2251 DEB",
        "group": "cosmos-2251-debris",
        "lat": 1.3313892978261321,
        "lon": -52.536195019483145,
        "alt_km": 648.8585828413725,
        "timestamp": "2025-12-12T14:39:18.326882+00:00",
        "meta_object_name": "COSMOS 2251 DEB",
        "meta_object_id": "1993-036RA",
        "meta_epoch": "2025-12-11T22:27:13.227264",
        "meta_mean_motion": 14.58024093,
        "meta_eccentricity": 0.0079805,
        "meta_inclination": 74.0641,
        "meta_ra_of_asc_node": 308.3648,
        "meta_arg_of_pericenter": 22.8974,
        "meta_mean_anomaly": 37.0595,
        "meta_ephemeris_type": 0,
        "meta_classification_type": "U",
        "meta_norad_cat_id": 34409,
        "meta_element_set_no": 999,
        "meta_rev_at_epoch": 89181,
        "meta_bstar": 0.00043693,
        "meta_mean_motion_dot": 2.068e-05,
        "meta_mean_motion_ddot": 0,
        "tle_line1": "1 34409U 93036RA  25345.93556976  .00002068  00000+0  43693-3 0  9993",
        "tle_line2": "2 34409  74.0641 308.3648 0079805  22.8974  37.0595 14.58024093891819"
      },
      "geometry": {
        "type": "Point",
        "coordinates": [
          -52.536195019483145,
          1.3313892978261321
        ]
      }
    },
    {
      "type": "Feature",
      "properties": {
        "norad_id": 34410,
        "name": "COSMOS 2251 DEB",
        "group": "cosmos-2251-debris",
        "lat": 11.096114444156918,
        "lon": -94.70167812099238,
        "alt_km": 510.7911391743837,
        "timestamp": "2025-12-12T14:39:18.326891+00:00",
        "meta_object_name": "COSMOS 2251 DEB",
        "meta_object_id": "1993-036RB",
        "meta_epoch": "2025-12-12T05:47:38.706144",
        "meta_mean_motion": 15.18859783,
        "meta_eccentricity": 0.00214784,
        "meta_inclination": 73.7363,
        "meta_ra_of_asc_node": 262.8024,
        "meta_arg_of_pericenter": 104.6964,
        "meta_mean_anomaly": 49.2576,
        "meta_ephemeris_type": 0,
        "meta_classification_type": "U",
        "meta_norad_cat_id": 34410,
        "meta_element_set_no": 999,
        "meta_rev_at_epoch": 89766,
        "meta_bstar": 0.0032816974,
        "meta_mean_motion_dot": 0.00069449,
        "meta_mean_motion_ddot": 0,
        "tle_line1": "1 34410U 93036RB  25346.24142021  .00069449  00000+0  32817-2 0  9993",
        "tle_line2": "2 34410  73.7363 262.8024 0021478 104.6964  49.2576 15.18859783897663"
      },
      "geometry": {
        "type": "Point",
        "coordinates": [
          -94.70167812099238,
          11.096114444156918
        ]
      }
    },
    {
      "type": "Feature",
      "properties": {
        "norad_id": 34412,
        "name": "COSMOS 2251 DEB",
        "group": "cosmos-2251-debris",
        "lat": -35.825824387626895,
        "lon": 156.8485836513195,
        "alt_km": 863.5805902716238,
        "timestamp": "2025-12-12T14:39:18.326900+00:00",
        "meta_object_name": "COSMOS 2251 DEB",
        "meta_object_id": "1993-036RD",
        "meta_epoch": "2025-12-12T07:01:45.991488",
        "meta_mean_motion": 14.47125156,
        "meta_eccentricity": 0.01871512,
        "meta_inclination": 73.9485,
        "meta_ra_of_asc_node": 325.4499,
        "meta_arg_of_pericenter": 60.6296,
        "meta_mean_anomaly": 301.3406,
        "meta_ephemeris_type": 0,
        "meta_classification_type": "U",
        "meta_norad_cat_id": 34412,
        "meta_element_set_no": 999,
        "meta_rev_at_epoch": 87644,
        "meta_bstar": 0.001954242,
        "meta_mean_motion_dot": 8.859e-05,
        "meta_mean_motion_ddot": 0,
        "tle_line1": "1 34412U 93036RD  25346.29289342  .00008859  00000+0  19542-2 0  9996",
        "tle_line2": "2 34412  73.9485 325.4499 0187151  60.6296 301.3406 14.47125156876442"
      },
      "geometry": {
        "type": "Point",
        "coordinates": [
          156.8485836513195,
          -35.825824387626895
        ]
      }
    },
    {
      "type": "Feature",
      "properties": {
        "norad_id": 34413,
        "name": "COSMOS 2251 DEB",
        "group": "cosmos-2251-debris",
        "lat": -2.938957218853559,
        "lon": -95.72960273127345,
        "alt_km": 734.8587251723484,
        "timestamp": "2025-12-12T14:39:18.326910+00:00",
        "meta_object_name": "COSMOS 2251 DEB",
        "meta_object_id": "1993-036RE",
        "meta_epoch": "2025-12-12T05:17:33.755712",
        "meta_mean_motion": 14.29093408,
        "meta_eccentricity": 0.00908685,
        "meta_inclination": 74.031,
        "meta_ra_of_asc_node": 265.8209,
        "meta_arg_of_pericenter": 342.3849,
        "meta_mean_anomaly": 168.2383,
        "meta_ephemeris_type": 0,
        "meta_classification_type": "U",
        "meta_norad_cat_id": 34413,
        "meta_element_set_no": 999,
        "meta_rev_at_epoch": 87123,
        "meta_bstar": 0.0024919094,
        "meta_mean_motion_dot": 6.583e-05,
        "meta_mean_motion_ddot": 0,
        "tle_line1": "1 34413U 93036RE  25346.22052958  .00006583  00000+0  24919-2 0  9997",
        "tle_line2": "2 34413  74.0310 265.8209 0090868 342.3849 168.2383 14.29093408871230"
      },
      "geometry": {
        "type": "Point",
        "coordinates": [
          -95.72960273127345,
          -2.938957218853559
        ]
      }
    }
  ]
}